STARLINK-1136_new
1 15089C 20006AX  21326.16748781  .00052648  00000-0  35294-2 0  3264
2 15089  53.0543  87.9507 0001350  76.0408 155.1207 15.06325965    12
STARLINK-1136_old
1 25089C 20006AX  21325.11718605 -.00103078  00000-0 -68651-2 0  3258
2 25089  53.0545  92.6673 0001359  73.9353 217.3558 15.06723391    10
